{"type": "FeatureCollection", "features": [ {"type": "Feature", "properties": {"norad_id": 30242, "name": "FENGYUN 1C DEB", "group": "fengyun-1c-debris", "lat": 0.2663855225282801, "lon": -158.02776548757154, "alt_km": 841.0884379248455, "timestamp": "2025-12-13T18:50:04.705597+00:00", "meta": {"OBJECT_NAME": "FENGYUN 1C DEB", "OBJECT_ID": "1999-025XB", "EPOCH": "2025-12-13T01:20:20.814144", "MEAN_MOTION": 14.17639055, "ECCENTRICITY": 0.00110675, "INCLINATION": 98.6834, "RA_OF_ASC_NODE": 21.2191, "ARG_OF_PERICENTER": 54.0511, "MEAN_ANOMALY": 7.2006, "EPHEMERIS_TYPE": 0, "CLASSIFICATION_TYPE": "U", "NORAD_CAT_ID": 30242, "ELEMENT_SET_NO": 999, "REV_AT_EPOCH": 97431, "BSTAR": 0.00082536385, "MEAN_MOTION_DOT": 1.637e-05, "MEAN_MOTION_DDOT": 0}, "tle": {"line1": "1 30242U 99025XB  25347.05579646  .00001637  00000+0  82536-3 0  9992", "line2": "2 30242  98.6834  21.2191 0011067  54.0511   7.2006 14.17639055974318"}}, "geometry": {"type": "Point", "coordinates": [-158.02776548757154, 0.2663855225282801]}}, {"type": "Feature", "properties": {"norad_id": 30243, "name": "FENGYUN 1C DEB", "group": "fengyun-1c-debris", "lat": -64.63708258626369, "lon": 160.3439878830326, "alt_km": 862.2809417951385, "timestamp": "2025-12-13T18:50:04.705607+00:00", "meta": {"OBJECT_NAME": "FENGYUN 1C DEB", "OBJECT_ID": "1999-025XC", "EPOCH": "2025-12-12T23:15:59.468256", "MEAN_MOTION": 14.1302203, "ECCENTRICITY": 0.0013075, "INCLINATION": 98.6932, "RA_OF_ASC_NODE": 358.3816, "ARG_OF_PERICENTER": 118.4677, "MEAN_ANOMALY": 302.2398, "EPHEMERIS_TYPE": 0, "CLASSIFICATION_TYPE": "U", "NORAD_CAT_ID": 30243, "ELEMENT_SET_NO": 999, "REV_AT_EPOCH": 97282, "BSTAR": 0.00054809978, "MEAN_MOTION_DOT": 9.81e-06, "MEAN_MOTION_DDOT": 0}, "tle": {"line1": "1 30243U 99025XC  25346.96943829  .00000981  00000+0  54810-3 0  9995", "line2": "2 30243  98.6932 358.3816 0013075 118.4677 302.2398 14.13022030972826"}}, "geometry": {"type": "Point", "coordinates": [160.3439878830326, -64.63708258626369]}}, {"type": "Feature", "properties": {"norad_id": 30244, "name": "FENGYUN 1C DEB", "group": "fengyun-1c-debris", "lat": 80.72909927226499, "lon": 156.84363586722637, "alt_km": 839.7542185659613, "timestamp": "2025-12-13T18:50:04.705618+00:00", "meta": {"OBJECT_NAME": "FENGYUN 1C DEB", "OBJECT_ID": "1999-025XD", "EPOCH": "2025-12-13T07:06:43.468416", "MEAN_MOTION": 14.15017773, "ECCENTRICITY": 0.00095284, "INCLINATION": 99.1433, "RA_OF_ASC_NODE": 236.9614, "ARG_OF_PERICENTER": 313.6809, "MEAN_ANOMALY": 167.9717, "EPHEMERIS_TYPE": 0, "CLASSIFICATION_TYPE": "U", "NORAD_CAT_ID": 30244, "ELEMENT_SET_NO": 999, "REV_AT_EPOCH": 97354, "BSTAR": 0.00061041227, "MEAN_MOTION_DOT": 1.136e-05, "MEAN_MOTION_DDOT": 0}, "tle": {"line1": "1 30244U 99025XD  25347.29633644  .00001136  00000+0  61041-3 0  9991", "line2": "2 30244  99.1433 236.9614 0009528 313.6809 167.9717 14.15017773973541"}}, "geometry": {"type": "Point", "coordinates": [156.84363586722637, 80.72909927226499]}}, {"type": "Feature", "properties": {"norad_id": 30245, "name": "FENGYUN 1C DEB", "group": "fengyun-1c-debris", "lat": 80.68452189141738, "lon": -132.11675548428838, "alt_km": 1088.2862627982777, "timestamp": "2025-12-13T18:50:04.705629+00:00", "meta": {"OBJECT_NAME": "FENGYUN 1C DEB", "OBJECT_ID": "1999-025XE", "EPOCH": "2025-12-13T04:26:30.996672", "MEAN_MOTION": 13.79070295, "ECCENTRICITY": 0.01930908, "INCLINATION": 98.889, "RA_OF_ASC_NODE": 334.7583, "ARG_OF_PERICENTER": 249.8357, "MEAN_ANOMALY": 108.1934, "EPHEMERIS_TYPE": 0, "CLASSIFICATION_TYPE": "U", "NORAD_CAT_ID": 30245, "ELEMENT_SET_NO": 999, "REV_AT_EPOCH": 94700, "BSTAR": 0.0016632267, "MEAN_MOTION_DOT": 1.912e-05, "MEAN_MOTION_DDOT": 0}, "tle": {"line1": "1 30245U 99025XE  25347.18508098  .00001912  00000+0  16632-2 0  9991", "line2": "2 30245  98.8890 334.7583 0193090 249.8357 108.1934 13.79070295947000"}}, "geometry": {"type": "Point", "coordinates": [-132.11675548428838, 80.68452189141738]}}, {"type": "Feature", "properties": {"norad_id": 30246, "name": "FENGYUN 1C DEB", "group": "fengyun-1c-debris", "lat": 29.20764201163873, "lon": 126.41129340537887, "alt_km": 1003.4141137470842, "timestamp": "2025-12-13T18:50:04.705639+00:00", "meta": {"OBJECT_NAME": "FENGYUN 1C DEB", "OBJECT_ID": "1999-025XF", "EPOCH": "2025-12-12T21:45:34.528032", "MEAN_MOTION": 13.37018862, "ECCENTRICITY": 0.03706764, "INCLINATION": 98.6731, "RA_OF_ASC_NODE": 130.5564, "ARG_OF_PERICENTER": 99.2912, "MEAN_ANOMALY": 29.8068, "EPHEMERIS_TYPE": 0, "CLASSIFICATION_TYPE": "U", "NORAD_CAT_ID": 30246, "ELEMENT_SET_NO": 999, "REV_AT_EPOCH": 92142, "BSTAR": 0.00038954791, "MEAN_MOTION_DOT": 2.69e-06, "MEAN_MOTION_DDOT": 0}, "tle": {"line1": "1 30246U 99025XF  25346.90664963  .00000269  00000+0  38955-3 0  9992", "line2": "2 30246  98.6731 130.5564 0370676  99.2912  29.8068 13.37018862921426"}}, "geometry": {"type": "Point", "coordinates": [126.41129340537887, 29.20764201163873]}}, {"type": "Feature", "properties": {"norad_id": 30247, "name": "FENGYUN 1C DEB", "group": "fengyun-1c-debris", "lat": -16.922284263743162, "lon": 72.39734404762805, "alt_km": 820.8502890757118, "timestamp": "2025-12-13T18:50:04.705650+00:00", "meta": {"OBJECT_NAME": "FENGYUN 1C DEB", "OBJECT_ID": "1999-025XG", "EPOCH": "2025-12-12T17:29:03.702912", "MEAN_MOTION": 14.59174533, "ECCENTRICITY": 0.01940238, "INCLINATION": 98.2754, "RA_OF_ASC_NODE": 253.8818, "ARG_OF_PERICENTER": 352.0782, "MEAN_ANOMALY": 60.5688, "EPHEMERIS_TYPE": 0, "CLASSIFICATION_TYPE": "U", "NORAD_CAT_ID": 30247, "ELEMENT_SET_NO": 999, "REV_AT_EPOCH": 97282, "BSTAR": 0.0047985988, "MEAN_MOTION_DOT": 0.00029473, "MEAN_MOTION_DDOT": 0}, "tle": {"line1": "1 30247U 99025XG  25346.72851508  .00029473  00000+0  47986-2 0  9997", "line2": "2 30247  98.2754 253.8818 0194023 352.0782  60.5688 14.59174533972827"}}, "geometry": {"type": "Point", "coordinates": [72.39734404762805, -16.922284263743162]}}, {"type": "Feature", "properties": {"norad_id": 30248, "name": "FENGYUN 1C DEB", "group": "fengyun-1c-debris", "lat": -52.44184751888905, "lon": -20.022880998632584, "alt_km": 700.8609593544697, "timestamp": "2025-12-13T18:50:04.705661+00:00", "meta": {"OBJECT_NAME": "FENGYUN 1C DEB", "OBJECT_ID": "1999-025XH", "EPOCH": "2025-12-11T11:27:47.355552", "MEAN_MOTION": 14.59109462, "ECCENTRICITY": 0.00290598, "INCLINATION": 99.0999, "RA_OF_ASC_NODE": 169.4814, "ARG_OF_PERICENTER": 154.3791, "MEAN_ANOMALY": 205.8853, "EPHEMERIS_TYPE": 0, "CLASSIFICATION_TYPE": "U", "NORAD_CAT_ID": 30248, "ELEMENT_SET_NO": 999, "REV_AT_EPOCH": 97410, "BSTAR": 0.008467698, "MEAN_MOTION_DOT": 0.00040266, "MEAN_MOTION_DDOT": 0}, "tle": {"line1": "1 30248U 99025XH  25345.47763143  .00040266  00000+0  84677-2 0  9997", "line2": "2 30248  99.0999 169.4814 0029059 154.3791 205.8853 14.59109462974105"}}, "geometry": {"type": "Point", "coordinates": [-20.022880998632584, -52.44184751888905]}}, {"type": "Feature", "properties": {"norad_id": 30249, "name": "FENGYUN 1C DEB", "group": "fengyun-1c-debris", "lat": -64.16931959682927, "lon": 171.29934046168063, "alt_km": 712.2446558910578, "timestamp": "2025-12-13T18:50:04.705672+00:00", "meta": {"OBJECT_NAME": "FENGYUN 1C DEB", "OBJECT_ID": "1999-025XJ", "EPOCH": "2025-12-12T22:26:08.765952", "MEAN_MOTION": 14.57678894, "ECCENTRICITY": 0.00265028, "INCLINATION": 98.9585, "RA_OF_ASC_NODE": 151.3669, "ARG_OF_PERICENTER": 41.0129, "MEAN_ANOMALY": 115.938, "EPHEMERIS_TYPE": 0, "CLASSIFICATION_TYPE": "U", "NORAD_CAT_ID": 30249, "ELEMENT_SET_NO": 999, "REV_AT_EPOCH": 97566, "BSTAR": 0.0047255411, "MEAN_MOTION_DOT": 0.00021677, "MEAN_MOTION_DDOT": 0}, "tle": {"line1": "1 30249U 99025XJ  25346.93482368  .00021677  00000+0  47255-2 0  9993", "line2": "2 30249  98.9585 151.3669 0026502  41.0129 115.9380 14.57678894975666"}}, "geometry": {"type": "Point", "coordinates": [171.29934046168063, -64.16931959682927]}}, {"type": "Feature", "properties": {"norad_id": 30250, "name": "FENGYUN 1C DEB", "group": "fengyun-1c-debris", "lat": 17.569559781105372, "lon": 162.4854073477204, "alt_km": 862.200311842611, "timestamp": "2025-12-13T18:50:04.705683+00:00", "meta": {"OBJECT_NAME": "FENGYUN 1C DEB", "OBJECT_ID": "1999-025XK", "EPOCH": "2025-12-13T06:08:43.693728", "MEAN_MOTION": 14.01626973, "ECCENTRICITY": 0.00683855, "INCLINATION": 98.7544, "RA_OF_ASC_NODE": 339.1815, "ARG_OF_PERICENTER": 221.9428, "MEAN_ANOMALY": 154.4831, "EPHEMERIS_TYPE": 0, "CLASSIFICATION_TYPE": "U", "NORAD_CAT_ID": 30250, "ELEMENT_SET_NO": 999, "REV_AT_EPOCH": 96499, "BSTAR": 0.00057137487, "MEAN_MOTION_DOT": 8.41e-06, "MEAN_MOTION_DDOT": 0}, "tle": {"line1": "1 30250U 99025XK  25347.25606127  .00000841  00000+0  57137-3 0  9993", "line2": "2 30250  98.7544 339.1815 0068385 221.9428 154.4831 14.01626973964999"}}, "geometry": {"type": "Point", "coordinates": [162.4854073477204, 17.569559781105372]}}, {"type": "Feature", "properties": {"norad_id": 30251, "name": "FENGYUN 1C DEB", "group": "fengyun-1c-debris", "lat": -27.737118906122173, "lon": -169.04813821226983, "alt_km": 762.7809957958716, "timestamp": "2025-12-13T18:50:04.705693+00:00", "meta": {"OBJECT_NAME": "FENGYUN 1C DEB", "OBJECT_ID": "1999-025XL", "EPOCH": "2025-12-13T01:11:30.659424", "MEAN_MOTION": 14.29304883, "ECCENTRICITY": 0.00517543, "INCLINATION": 99.0491, "RA_OF_ASC_NODE": 185.3819, "ARG_OF_PERICENTER": 329.3892, "MEAN_ANOMALY": 182.1393, "EPHEMERIS_TYPE": 0, "CLASSIFICATION_TYPE": "U", "NORAD_CAT_ID": 30251, "ELEMENT_SET_NO": 999, "REV_AT_EPOCH": 98146, "BSTAR": 0.00069097994, "MEAN_MOTION_DOT": 1.736e-05, "MEAN_MOTION_DDOT": 0}, "tle": {"line1": "1 30251U 99025XL  25347.04966041  .00001736  00000+0  69098-3 0  9998", "line2": "2 30251  99.0491 185.3819 0051754 329.3892 182.1393 14.29304883981465"}}, "geometry": {"type": "Point", "coordinates": [-169.04813821226983, -27.737118906122173]}}]}